{"type": "FeatureCollection", "features": [ {"type": "Feature", "properties": {"norad_id": 67120, "name": "STARLINK-36217", "group": "last-30-days", "lat": 21.67805035513783, "lon": 46.05367136883811, "alt_km": 296.22394721442924, "timestamp": "2025-12-23T09:49:05.801112+00:00", "meta": {"OBJECT_NAME": "STARLINK-36217", "OBJECT_ID": "2025-299U", "EPOCH": "2025-12-22T22:00:03.000096", "MEAN_MOTION": 15.93063853, "ECCENTRICITY": 0.00012616, "INCLINATION": 42.9982, "RA_OF_ASC_NODE": 254.3705, "ARG_OF_PERICENTER": 254.9531, "MEAN_ANOMALY": 306.5489, "EPHEMERIS_TYPE": 0, "CLASSIFICATION_TYPE": "U", "NORAD_CAT_ID": 67120, "ELEMENT_SET_NO": 999, "REV_AT_EPOCH": 244, "BSTAR": -0.0057292781, "MEAN_MOTION_DOT": -0.02068409, "MEAN_MOTION_DDOT": 0.0011629709}, "tle": {"line1": "1 67120U 25299U   25356.91670139 -.02068409  11630-2 -57293-2 0  9992", "line2": "2 67120  42.9982 254.3705 0001261 254.9531 306.5489 15.93063853  2445"}}, "geometry": {"type": "Point", "coordinates": [46.05367136883811, 21.67805035513783]}}, {"type": "Feature", "properties": {"norad_id": 67121, "name": "STARLINK-36124", "group": "last-30-days", "lat": 18.81471483341226, "lon": 49.84625564914568, "alt_km": 296.5054431759936, "timestamp": "2025-12-23T09:49:05.801123+00:00", "meta": {"OBJECT_NAME": "STARLINK-36124", "OBJECT_ID": "2025-299V", "EPOCH": "2025-12-22T22:00:03.000096", "MEAN_MOTION": 15.93108383, "ECCENTRICITY": 0.00013605, "INCLINATION": 42.9982, "RA_OF_ASC_NODE": 254.3589, "ARG_OF_PERICENTER": 254.509, "MEAN_ANOMALY": 311.4977, "EPHEMERIS_TYPE": 0, "CLASSIFICATION_TYPE": "U", "NORAD_CAT_ID": 67121, "ELEMENT_SET_NO": 999, "REV_AT_EPOCH": 244, "BSTAR": -0.0057512718, "MEAN_MOTION_DOT": -0.02081096, "MEAN_MOTION_DDOT": 0.00117696}, "tle": {"line1": "1 67121U 25299V   25356.91670139 -.02081096  11770-2 -57513-2 0  9990", "line2": "2 67121  42.9982 254.3589 0001360 254.5090 311.4977 15.93108383  2447"}}, "geometry": {"type": "Point", "coordinates": [49.84625564914568, 18.81471483341226]}}, {"type": "Feature", "properties": {"norad_id": 67122, "name": "STARLINK-36188", "group": "last-30-days", "lat": 17.913084855449068, "lon": 50.99257240283832, "alt_km": 296.4030311445804, "timestamp": "2025-12-23T09:49:05.801133+00:00", "meta": {"OBJECT_NAME": "STARLINK-36188", "OBJECT_ID": "2025-299W", "EPOCH": "2025-12-22T22:00:03.000096", "MEAN_MOTION": 15.93056025, "ECCENTRICITY": 0.00013976, "INCLINATION": 42.9983, "RA_OF_ASC_NODE": 254.3553, "ARG_OF_PERICENTER": 249.2899, "MEAN_ANOMALY": 318.153, "EPHEMERIS_TYPE": 0, "CLASSIFICATION_TYPE": "U", "NORAD_CAT_ID": 67122, "ELEMENT_SET_NO": 999, "REV_AT_EPOCH": 244, "BSTAR": -0.0055250872, "MEAN_MOTION_DOT": -0.01994819, "MEAN_MOTION_DDOT": 0.0010864875}, "tle": {"line1": "1 67122U 25299W   25356.91670139 -.01994819  10865-2 -55251-2 0  9997", "line2": "2 67122  42.9983 254.3553 0001397 249.2899 318.1530 15.93056025  2442"}}, "geometry": {"type": "Point", "coordinates": [50.99257240283832, 17.913084855449068]}}, {"type": "Feature", "properties": {"norad_id": 67123, "name": "STARLINK-36151", "group": "last-30-days", "lat": 19.90972238862796, "lon": 48.42536938905762, "alt_km": 296.89398176695613, "timestamp": "2025-12-23T09:49:05.801145+00:00", "meta": {"OBJECT_NAME": "STARLINK-36151", "OBJECT_ID": "2025-299X", "EPOCH": "2025-12-22T22:00:03.000096", "MEAN_MOTION": 15.93077646, "ECCENTRICITY": 0.0001644, "INCLINATION": 42.9985, "RA_OF_ASC_NODE": 254.3634, "ARG_OF_PERICENTER": 270.4179, "MEAN_ANOMALY": 293.8899, "EPHEMERIS_TYPE": 0, "CLASSIFICATION_TYPE": "U", "NORAD_CAT_ID": 67123, "ELEMENT_SET_NO": 999, "REV_AT_EPOCH": 244, "BSTAR": -0.005692819, "MEAN_MOTION_DOT": -0.02056993, "MEAN_MOTION_DDOT": 0.0011510975}, "tle": {"line1": "1 67123U 25299X   25356.91670139 -.02056993  11511-2 -56928-2 0  9992", "line2": "2 67123  42.9985 254.3634 0001644 270.4179 293.8899 15.93077646  2446"}}, "geometry": {"type": "Point", "coordinates": [48.42536938905762, 19.90972238862796]}}, {"type": "Feature", "properties": {"norad_id": 67124, "name": "STARLINK-36195", "group": "last-30-days", "lat": 16.8872199825975, "lon": 52.27294159737143, "alt_km": 297.16715494440086, "timestamp": "2025-12-23T09:49:05.801155+00:00", "meta": {"OBJECT_NAME": "STARLINK-36195", "OBJECT_ID": "2025-299Y", "EPOCH": "2025-12-22T22:00:03.000096", "MEAN_MOTION": 15.93099678, "ECCENTRICITY": 0.00020067, "INCLINATION": 42.9985, "RA_OF_ASC_NODE": 254.3516, "ARG_OF_PERICENTER": 266.3489, "MEAN_ANOMALY": 302.6595, "EPHEMERIS_TYPE": 0, "CLASSIFICATION_TYPE": "U", "NORAD_CAT_ID": 67124, "ELEMENT_SET_NO": 999, "REV_AT_EPOCH": 244, "BSTAR": -0.0056505161, "MEAN_MOTION_DOT": -0.02044372, "MEAN_MOTION_DDOT": 0.0011381266}, "tle": {"line1": "1 67124U 25299Y   25356.91670139 -.02044372  11381-2 -56505-2 0  9997", "line2": "2 67124  42.9985 254.3516 0002006 266.3489 302.6595 15.93099678  2448"}}, "geometry": {"type": "Point", "coordinates": [52.27294159737143, 16.8872199825975]}}, {"type": "Feature", "properties": {"norad_id": 67125, "name": "STARLINK-36219", "group": "last-30-days", "lat": 15.912022821049211, "lon": 53.46706909550346, "alt_km": 297.13468480141, "timestamp": "2025-12-23T09:49:05.801165+00:00", "meta": {"OBJECT_NAME": "STARLINK-36219", "OBJECT_ID": "2025-299Z", "EPOCH": "2025-12-22T22:00:03.000096", "MEAN_MOTION": 15.93118346, "ECCENTRICITY": 0.00015435, "INCLINATION": 42.9982, "RA_OF_ASC_NODE": 254.3473, "ARG_OF_PERICENTER": 266.3812, "MEAN_ANOMALY": 304.1059, "EPHEMERIS_TYPE": 0, "CLASSIFICATION_TYPE": "U", "NORAD_CAT_ID": 67125, "ELEMENT_SET_NO": 999, "REV_AT_EPOCH": 244, "BSTAR": -0.0056796123, "MEAN_MOTION_DOT": -0.02056601, "MEAN_MOTION_DDOT": 0.0011511658}, "tle": {"line1": "1 67125U 25299Z   25356.91670139 -.02056601  11512-2 -56796-2 0  9994", "line2": "2 67125  42.9982 254.3473 0001543 266.3812 304.1059 15.93118346  2449"}}, "geometry": {"type": "Point", "coordinates": [53.46706909550346, 15.912022821049211]}}, {"type": "Feature", "properties": {"norad_id": 67126, "name": "STARLINK-36223", "group": "last-30-days", "lat": 14.714309720923971, "lon": 54.908400006329366, "alt_km": 297.18310085165103, "timestamp": "2025-12-23T09:49:05.801176+00:00", "meta": {"OBJECT_NAME": "STARLINK-36223", "OBJECT_ID": "2025-299AA", "EPOCH": "2025-12-22T22:00:03.000096", "MEAN_MOTION": 15.93123695, "ECCENTRICITY": 0.00016606, "INCLINATION": 42.9982, "RA_OF_ASC_NODE": 254.3429, "ARG_OF_PERICENTER": 262.7069, "MEAN_ANOMALY": 309.6091, "EPHEMERIS_TYPE": 0, "CLASSIFICATION_TYPE": "U", "NORAD_CAT_ID": 67126, "ELEMENT_SET_NO": 999, "REV_AT_EPOCH": 244, "BSTAR": -0.0056752256, "MEAN_MOTION_DOT": -0.02055643, "MEAN_MOTION_DDOT": 0.001150222}, "tle": {"line1": "1 67126U 25299AA  25356.91670139 -.02055643  11502-2 -56752-2 0  9991", "line2": "2 67126  42.9982 254.3429 0001660 262.7069 309.6091 15.93123695  2444"}}, "geometry": {"type": "Point", "coordinates": [54.908400006329366, 14.714309720923971]}}, {"type": "Feature", "properties": {"norad_id": 67127, "name": "STARLINK-36164", "group": "last-30-days", "lat": 13.635132679383387, "lon": 56.184568556239014, "alt_km": 297.33641229955447, "timestamp": "2025-12-23T09:49:05.801188+00:00", "meta": {"OBJECT_NAME": "STARLINK-36164", "OBJECT_ID": "2025-299AB", "EPOCH": "2025-12-22T22:00:03.000096", "MEAN_MOTION": 15.93112236, "ECCENTRICITY": 0.0001948, "INCLINATION": 42.9983, "RA_OF_ASC_NODE": 254.3389, "ARG_OF_PERICENTER": 262.3793, "MEAN_ANOMALY": 311.589, "EPHEMERIS_TYPE": 0, "CLASSIFICATION_TYPE": "U", "NORAD_CAT_ID": 67127, "ELEMENT_SET_NO": 999, "REV_AT_EPOCH": 244, "BSTAR": -0.005627076, "MEAN_MOTION_DOT": -0.02037306, "MEAN_MOTION_DDOT": 0.0011309005}, "tle": {"line1": "1 67127U 25299AB  25356.91670139 -.02037306  11309-2 -56271-2 0  9999", "line2": "2 67127  42.9983 254.3389 0001948 262.3793 311.5890 15.93112236  2448"}}, "geometry": {"type": "Point", "coordinates": [56.184568556239014, 13.635132679383387]}}, {"type": "Feature", "properties": {"norad_id": 67128, "name": "STARLINK-35685", "group": "last-30-days", "lat": 10.403211136759378, "lon": 59.8982847517645, "alt_km": 297.8914143321708, "timestamp": "2025-12-23T09:49:05.801200+00:00", "meta": {"OBJECT_NAME": "STARLINK-35685", "OBJECT_ID": "2025-299AC", "EPOCH": "2025-12-22T22:00:03.000096", "MEAN_MOTION": 15.9309749, "ECCENTRICITY": 0.00020184, "INCLINATION": 42.9981, "RA_OF_ASC_NODE": 254.3262, "ARG_OF_PERICENTER": 265.537, "MEAN_ANOMALY": 313.3411, "EPHEMERIS_TYPE": 0, "CLASSIFICATION_TYPE": "U", "NORAD_CAT_ID": 67128, "ELEMENT_SET_NO": 999, "REV_AT_EPOCH": 244, "BSTAR": -0.0056801777, "MEAN_MOTION_DOT": -0.02054742, "MEAN_MOTION_DDOT": 0.0011489655}, "tle": {"line1": "1 67128U 25299AC  25356.91670139 -.02054742  11490-2 -56802-2 0  9994", "line2": "2 67128  42.9981 254.3262 0002018 265.5370 313.3411 15.93097490  2445"}}, "geometry": {"type": "Point", "coordinates": [59.8982847517645, 10.403211136759378]}}, {"type": "Feature", "properties": {"norad_id": 67129, "name": "STARLINK-36214", "group": "last-30-days", "lat": 12.328956983020486, "lon": 57.70316630180918, "alt_km": 297.67618275714267, "timestamp": "2025-12-23T09:49:05.801210+00:00", "meta": {"OBJECT_NAME": "STARLINK-36214", "OBJECT_ID": "2025-299AD", "EPOCH": "2025-12-22T22:00:03.000096", "MEAN_MOTION": 15.9312309, "ECCENTRICITY": 0.00013072, "INCLINATION": 42.9982, "RA_OF_ASC_NODE": 254.3337, "ARG_OF_PERICENTER": 272.8624, "MEAN_ANOMALY": 303.0742, "EPHEMERIS_TYPE": 0, "CLASSIFICATION_TYPE": "U", "NORAD_CAT_ID": 67129, "ELEMENT_SET_NO": 999, "REV_AT_EPOCH": 244, "BSTAR": -0.0056918699, "MEAN_MOTION_DOT": -0.02061426, "MEAN_MOTION_DDOT": 0.0011563}, "tle": {"line1": "1 67129U 25299AD  25356.91670139 -.02061426  11563-2 -56919-2 0  9992", "line2": "2 67129  42.9982 254.3337 0001307 272.8624 303.0742 15.93123090  2442"}}, "geometry": {"type": "Point", "coordinates": [57.70316630180918, 12.328956983020486]}}]}